RAVAN                   
1 41849U 16067B   18346.84138164 -.00000020  00000-0  34778-5 0  9990
2 41849  97.9229  78.2413 0007587 290.3477  69.6930 14.98020808113873
CELTEE 1                
1 41850U 16067C   18347.24372285 -.00000172  00000-0 -96646-5 0  9992
2 41850  97.9201  77.7628 0007694 290.4620  69.5775 14.96910822113886
OPTICUBE 04             
1 41851U 16067D   18347.76293645 -.00000346  00000-0 -24962-4 0  9996
2 41851  97.9204  78.1485 0007586 292.0398  68.0017 14.96741412113954
AEROCUBE 8D             
1 41852U 16067E   18347.21671301  .00000487  00000-0  48032-4 0  9994
2 41852  97.9218  77.4248 0008117 293.1470  66.8895 14.96607384113851
AEROCUBE 8C             
1 41853U 16067F   18347.77002513 -.00000303  00000-0 -21258-4 0  9999
2 41853  97.9211  77.9356 0008864 291.7935  68.2343 14.96568523113933
PROMETHEUS 2-1          
1 41854U 16067G   18347.22593113  .00000083  00000-0  12569-4 0  9999
2 41854  97.9223  77.4453 0008961 293.7448  66.2832 14.96731200113855
PROMETHEUS 2-3          
1 41855U 16067H   18347.83034898 -.00000129  00000-0 -59300-5 0  9995
2 41855  97.9224  78.0665 0009241 291.6265  68.3971 14.96731104113945
ITF-2                   
1 41932U 98067KU  18347.69939937  .00234193  35559-4  35131-3 0  9996
2 41932  51.6225 123.2326 0004125 287.1163  72.9397 16.04215711109242
INS-1B                  
1 41954U 17008G   18346.80540165  .00001181  00000-0  52442-4 0  9992
2 41954  97.4256  49.1040 0010980  87.5788 272.6706 15.23468782101195
BGUSAT                  
1 41999U 17008BD  18347.16787498  .00001868  00000-0  76942-4 0  9996
2 41999  97.4308  51.1034 0010005 100.7013 259.5352 15.25335002100702
DIDO-2                  
1 42000U 17008BE  18346.86260940  .00000888  00000-0  40079-4 0  9997
2 42000  97.4271  49.6674 0010243 103.0378 257.2003 15.23548657100608
PEASSS                  
1 42015U 17008BV  18347.72693323  .00001022  00000-0  44547-4 0  9999
2 42015  97.4273  51.2074 0008109 105.5002 254.7131 15.24428041101260
AL-FARABI 1             
1 42016U 17008BW  18347.73042209  .00001280  00000-0  54230-4 0  9998
2 42016  97.4284  51.5570 0007982 105.4148 254.7972 15.24947885101406
NAYIF-1 (EO-88)         
1 42017U 17008BX  18347.85288352  .00001284  00000-0  54381-4 0  9994
2 42017  97.4280  51.6868 0007941 105.2188 254.9928 15.24975916101444
HAVELSAT                
1 42700U 98067LH  18347.73799445  .00077941  00000-0  28802-3 0  9995
2 42700  51.6253 147.7852 0004357 233.1340 126.9266 15.87458602 90362
CXBN-2                  
1 42704U 98067LM  18347.68947627  .00071732  00000-0  27403-3 0  9998
2 42704  51.6285 149.7802 0002876 210.1321 149.9519 15.86820551 90255
PHOENIX                 
1 42706U 98067LP  18347.73203956  .00032685  00000-0  18399-3 0  9994
2 42706  51.6277 155.3892 0002027 171.9651 188.1383 15.78894843 90179
X-CUBESAT               
1 42707U 98067LQ  18347.68006687  .00101389  14963-4  31893-3 0  9990
2 42707  51.6248 145.7797 0003263 233.6549 126.4157 15.91302756 90288
QBEE50-LTU-OC           
1 42708U 98067LR  18347.76439539  .00074569  00000-0  28069-3 0  9999
2 42708  51.6257 148.7346 0002797 226.9685 133.1085 15.87107514 90217
ALTAIR PATHFINDER       
1 42711U 98067LS  18347.78060607  .00015800  00000-0  13224-3 0  9991
2 42711  51.6328 170.8538 0004137 147.1789 212.9466 15.70176657 89637
SHARC                   
1 42712U 98067LT  18347.75595947  .00035366  00000-0  23353-3 0  9992
2 42712  51.6327 169.9921 0003401 175.8599 184.2429 15.75234344 89882
ZA-AEROSAT              
1 42713U 98067LU  18347.73788976  .00033704  00000-0  20327-3 0  9999
2 42713  51.6343 159.9581 0003065 163.8153 196.2946 15.77329323 89770
CSUNSAT 1               
1 42715U 98067LW  18347.76000295  .00038625  00000-0  21451-3 0  9991
2 42715  51.6322 157.8603 0003812 166.2714 193.8391 15.79104432 89806
SPACECUBE               
1 42717U 98067LY  18347.68263458  .00071474  00000-0  27335-3 0  9992
2 42717  51.6212 149.5942 0003911 229.7400 130.3263 15.86794053 89274
HOOPOE                  
1 42718U 98067LZ  18347.72028219  .00630794  22152-3  63503-3 0  9990
2 42718  51.6208 137.4231 0006418 300.8120 157.7871 16.10377061 89432
NJUST-1                 
1 42722U 98067MB  18347.77732263  .00033139  00000-0  21929-3 0  9992
2 42722  51.6347 163.0671 0005902 185.8748 270.4339 15.75204788 88805
LILACSAT-1              
1 42725U 98067ME  18347.84764664  .00067427  00000-0  31564-3 0  9996
2 42725  51.6330 154.4901 0004703 197.5621 244.3557 15.82583333 88837
NSIGHT-1                
1 42726U 98067MF  18347.76321867  .00006342  00000-0  68382-4 0  9990
2 42726  51.6369 179.8829 0005386 178.6042 181.4969 15.65144226 88490
SNUSAT-1                
1 42727U 98067MG  18347.72949697  .00047605  00000-0  22835-3 0  9993
2 42727  51.6297 155.2828 0005195 182.3118 177.7861 15.82200494 88771
POLYITAN-2-SAU          
1 42732U 98067MM  18347.65895949  .00098798  14741-4  31864-3 0  9993
2 42732  51.6269 147.2205 0003775 203.7170 156.3663 15.90830720 88766
SNUSAT-1B               
1 42733U 98067MN  18347.68521204  .00063370  00000-0  26918-3 0  9998
2 42733  51.6266 152.7237 0004596 182.1477 177.9507 15.84664683 88696
BEEAGLESAT              
1 42736U 98067MR  18347.76912330  .00041082  00000-0  21912-3 0  9999
2 42736  51.6299 157.1069 0005546 196.4463 163.6360 15.79957455 88703
UCLSAT                  
1 42765U 17036A   18346.89696935  .00001164  00000-0  53489-4 0  9993
2 42765  97.3788  43.6797 0012162 162.3483 197.8178 15.22285013 81899
LITUANICASAT-2          
1 42768U 17036D   18347.78440053  .00001679  00000-0  76202-4 0  9992
2 42768  97.3810  44.1037 0016352 151.7872 208.4254 15.22067777 81877
AALTO-1                 
1 42775U 17036L   18346.72706944  .00000681  00000-0  33706-4 0  9991
2 42775  97.3778  42.6674 0014895 153.6432 206.5564 15.21030991 81635
URSA MAIOR              
1 42776U 17036M   18346.96589585  .00000778  00000-0  37961-4 0  9992
2 42776  97.3785  42.9939 0014728 152.8835 207.3173 15.21142440 81676
COMPASS 2               
1 42777U 17036N   18347.75767094  .00001444  00000-0  65598-4 0  9992
2 42777  97.3814  44.4917 0013590 152.1734 208.0232 15.22300299 81820
DIAMOND RED             
1 42783U 17036U   18347.14302509  .00000916  00000-0  43294-4 0  9990
2 42783  97.3788  43.6646 0012834 162.1750 197.9939 15.21821434 81723
PEGASUS                 
1 42784U 17036V   18347.74685919  .00000965  00000-0  45130-4 0  9991
2 42784  97.3791  44.3923 0012796 159.9559 200.2183 15.22069859 81828
DIAMOND GREEN           
1 42785U 17036W   18347.14180758  .00000917  00000-0  43342-4 0  9997
2 42785  97.3791  43.6817 0012695 162.7155 197.4515 15.21821150 81718
DIAMOND BLUE            
1 42786U 17036X   18347.73262274  .00000856  00000-0  40687-4 0  9998
2 42786  97.3790  44.2607 0012605 160.8810 199.2902 15.21823763 81802
NUDTSAT                 
1 42787U 17036Y   18347.84968856  .00001475  00000-0  65946-4 0  9993
2 42787  97.3825  44.8992 0010706 157.8343 202.3359 15.22826831 81703
SUCHAI                  
1 42788U 17036Z   18347.73417085  .00001155  00000-0  52907-4 0  9993
2 42788  97.3793  44.5644 0012409 159.4132 200.7607 15.22408773 81906
SKCUBE                  
1 42789U 17036AA  18346.88529250  .00001160  00000-0  53256-4 0  9991
2 42789  97.3792  43.7058 0012169 162.1989 197.9677 15.22338869 81698
VZLUSAT-1               
1 42790U 17036AB  18346.91727883  .00001591  00000-0  70897-4 0  9997
2 42790  97.3800  43.9851 0011817 161.7042 198.4622 15.22838135 81717
ROBUSTA-1B              
1 42792U 17036AD  18346.90180616  .00001157  00000-0  52854-4 0  9996
2 42792  97.3791  43.8234 0011743 162.7063 197.4576 15.22497148 81716
CICERO 6                
1 42793U 17036AE  18347.11842684  .00000863  00000-0  40530-4 0  9992
2 42793  97.3778  43.9520 0010894 162.7074 197.4535 15.22233250 81817
D-SAT                   
1 42794U 17036AF  18347.10407361  .00000216  00000-0  24083-4 0  9998
2 42794  97.5679  34.7685 0127898  47.1789 314.0095 14.90985061 80389
TOKI                    
1 42820U 98067MU  18347.77132804  .00038697  00000-0  21954-3 0  9998
2 42820  51.6313 160.9065 0003001 168.3666 191.7405 15.78632305 82113
MAZAALAI (NUMSAT-1)     
1 42822U 98067MW  18347.79006138  .00037033  00000-0  21683-3 0  9994
2 42822  51.6320 161.8029 0003372 171.0637 189.0424 15.77946838 82088
BRAC ONNESHA            
1 42823U 98067MX  18347.76507519  .00037855  00000-0  21826-3 0  9992
2 42823  51.6296 161.6491 0004968 165.8035 194.3106 15.78273059 82082
NIGERIAEDUSAT-1         
1 42824U 98067MY  18347.50970815  .00036389  00000-0  21516-3 0  9995
2 42824  51.6331 163.7365 0005204 171.0751 189.0343 15.77725760 82022
CORVUS BC2              
1 42846U 17042X   18347.15500457  .00000082  00000-0  13447-4 0  9991
2 42846  97.5827 243.3987 0008799 328.3939  31.6751 14.91896261 77059
CORVUS BC1              
1 42847U 17042Y   18347.18785840  .00000285  00000-0  33459-4 0  9996
2 42847  97.5829 243.5067 0008429 328.1313  31.9395 14.91995809 77052
SILU-1 (SILKROAD 1)     
1 42903U 17021F   18347.80065090  .00057791  00000-0  25059-3 0  9993
2 42903  42.7740 312.0612 0014553 144.4011 288.6795 15.83832963 78280
MIRATA                  
1 43015U 17073C   18347.79359696  .00001379  00000-0  11267-3 0  9998
2 43015  97.7140 271.3746 0257961  46.8502 315.3962 14.78541845 57679
MAKERSAT 0              
1 43016U 17073D   18347.78441453  .00000897  00000-0  74860-4 0  9994
2 43016  97.7171 271.5380 0259681  47.0297 315.2372 14.78424723 57663
ASTERIA                 
1 43020U 98067NH  18347.80523784  .00007411  00000-0  83080-4 0  9995
2 43020  51.6406 189.2591 0002901 129.7679 230.3571 15.63835549 60557
DELLINGR (RBLE)         
1 43021U 98067NJ  18347.83877184  .00005209  00000-0  69344-4 0  9995
2 43021  51.6379 193.9202 0003053 118.1299 242.0003 15.60033418 60492
